CCSDS_OMM_VERS = 2.0
CREATION_DATE  = 
ORIGINATOR     = 

OBJECT_NAME    = STARLINK-35454
OBJECT_ID      = 2025-245C
CENTER_NAME    = EARTH
REF_FRAME      = TEME
TIME_SYSTEM    = UTC
MEAN_ELEMENT_THEORY = SGP/SGP4

EPOCH          = 2025-11-08T20:00:01.999008
MEAN_MOTION    = 15.86620718
ECCENTRICITY   = .0000862
INCLINATION    = 53.1532
RA_OF_ASC_NODE = 132.2751
ARG_OF_PERICENTER = 56.6487
MEAN_ANOMALY   = 347.1834

EPHEMERIS_TYPE = 0
CLASSIFICATION_TYPE = U
NORAD_CAT_ID   = 66236
ELEMENT_SET_NO = 999
REV_AT_EPOCH   = 249
BSTAR          = -.47891E-2
MEAN_MOTION_DOT = -.1097415E-1
MEAN_MOTION_DDOT = 0

CCSDS_OMM_VERS = 2.0
CREATION_DATE  = 
ORIGINATOR     = 

OBJECT_NAME    = STARLINK-35557
OBJECT_ID      = 2025-245D
CENTER_NAME    = EARTH
REF_FRAME      = TEME
TIME_SYSTEM    = UTC
MEAN_ELEMENT_THEORY = SGP/SGP4

EPOCH          = 2025-11-08T20:00:01.999008
MEAN_MOTION    = 15.86659025
ECCENTRICITY   = .0000894
INCLINATION    = 53.1532
RA_OF_ASC_NODE = 132.2695
ARG_OF_PERICENTER = 50.9008
MEAN_ANOMALY   = 355.6245

EPHEMERIS_TYPE = 0
CLASSIFICATION_TYPE = U
NORAD_CAT_ID   = 66237
ELEMENT_SET_NO = 999
REV_AT_EPOCH   = 265
BSTAR          = -.49727E-2
MEAN_MOTION_DOT = -.1136264E-1
MEAN_MOTION_DDOT = 0

CCSDS_OMM_VERS = 2.0
CREATION_DATE  = 
ORIGINATOR     = 

OBJECT_NAME    = STARLINK-35556
OBJECT_ID      = 2025-245E
CENTER_NAME    = EARTH
REF_FRAME      = TEME
TIME_SYSTEM    = UTC
MEAN_ELEMENT_THEORY = SGP/SGP4

EPOCH          = 2025-11-08T20:00:01.999008
MEAN_MOTION    = 15.86689604
ECCENTRICITY   = .0000877
INCLINATION    = 53.1532
RA_OF_ASC_NODE = 132.2646
ARG_OF_PERICENTER = 57.6531
MEAN_ANOMALY   = 351.1868

EPHEMERIS_TYPE = 0
CLASSIFICATION_TYPE = U
NORAD_CAT_ID   = 66238
ELEMENT_SET_NO = 999
REV_AT_EPOCH   = 265
BSTAR          = -.50708E-2
MEAN_MOTION_DOT = -.1179349E-1
MEAN_MOTION_DDOT = 0

CCSDS_OMM_VERS = 2.0
CREATION_DATE  = 
ORIGINATOR     = 

OBJECT_NAME    = STARLINK-35554
OBJECT_ID      = 2025-245F
CENTER_NAME    = EARTH
REF_FRAME      = TEME
TIME_SYSTEM    = UTC
MEAN_ELEMENT_THEORY = SGP/SGP4

EPOCH          = 2025-11-08T20:00:01.999008
MEAN_MOTION    = 15.86715393
ECCENTRICITY   = .0000865
INCLINATION    = 53.1532
RA_OF_ASC_NODE = 132.2587
ARG_OF_PERICENTER = 59.1803
MEAN_ANOMALY   = 352.5160

EPHEMERIS_TYPE = 0
CLASSIFICATION_TYPE = U
NORAD_CAT_ID   = 66239
ELEMENT_SET_NO = 999
REV_AT_EPOCH   = 249
BSTAR          = -.5233E-2
MEAN_MOTION_DOT = -.1214312E-1
MEAN_MOTION_DDOT = 0

CCSDS_OMM_VERS = 2.0
CREATION_DATE  = 
ORIGINATOR     = 

OBJECT_NAME    = STARLINK-35546
OBJECT_ID      = 2025-245G
CENTER_NAME    = EARTH
REF_FRAME      = TEME
TIME_SYSTEM    = UTC
MEAN_ELEMENT_THEORY = SGP/SGP4

EPOCH          = 2025-11-08T20:00:01.999008
MEAN_MOTION    = 15.86729020
ECCENTRICITY   = .000094
INCLINATION    = 53.1530
RA_OF_ASC_NODE = 132.2530
ARG_OF_PERICENTER = 60.3434
MEAN_ANOMALY   = 353.8344

EPHEMERIS_TYPE = 0
CLASSIFICATION_TYPE = U
NORAD_CAT_ID   = 66240
ELEMENT_SET_NO = 999
REV_AT_EPOCH   = 265
BSTAR          = -.52665E-2
MEAN_MOTION_DOT = -.1222004E-1
MEAN_MOTION_DDOT = 0

CCSDS_OMM_VERS = 2.0
CREATION_DATE  = 
ORIGINATOR     = 

OBJECT_NAME    = STARLINK-35497
OBJECT_ID      = 2025-245H
CENTER_NAME    = EARTH
REF_FRAME      = TEME
TIME_SYSTEM    = UTC
MEAN_ELEMENT_THEORY = SGP/SGP4

EPOCH          = 2025-11-08T20:00:01.999008
MEAN_MOTION    = 15.86742304
ECCENTRICITY   = .0000973
INCLINATION    = 53.1530
RA_OF_ASC_NODE = 132.2480
ARG_OF_PERICENTER = 64.3842
MEAN_ANOMALY   = 352.2674

EPHEMERIS_TYPE = 0
CLASSIFICATION_TYPE = U
NORAD_CAT_ID   = 66241
ELEMENT_SET_NO = 999
REV_AT_EPOCH   = 260
BSTAR          = -.53121E-2
MEAN_MOTION_DOT = -.1232147E-1
MEAN_MOTION_DDOT = 0

CCSDS_OMM_VERS = 2.0
CREATION_DATE  = 
ORIGINATOR     = 

OBJECT_NAME    = STARLINK-35480
OBJECT_ID      = 2025-245J
CENTER_NAME    = EARTH
REF_FRAME      = TEME
TIME_SYSTEM    = UTC
MEAN_ELEMENT_THEORY = SGP/SGP4

EPOCH          = 2025-11-08T20:00:01.999008
MEAN_MOTION    = 15.86774921
ECCENTRICITY   = .0001021
INCLINATION    = 53.1532
RA_OF_ASC_NODE = 132.2323
ARG_OF_PERICENTER = 45.7821
MEAN_ANOMALY   = 18.7232

EPHEMERIS_TYPE = 0
CLASSIFICATION_TYPE = U
NORAD_CAT_ID   = 66242
ELEMENT_SET_NO = 999
REV_AT_EPOCH   = 265
BSTAR          = -.54462E-2
MEAN_MOTION_DOT = -.1261526E-1
MEAN_MOTION_DDOT = 0

CCSDS_OMM_VERS = 2.0
CREATION_DATE  = 
ORIGINATOR     = 

OBJECT_NAME    = STARLINK-35495
OBJECT_ID      = 2025-245K
CENTER_NAME    = EARTH
REF_FRAME      = TEME
TIME_SYSTEM    = UTC
MEAN_ELEMENT_THEORY = SGP/SGP4

EPOCH          = 2025-11-08T20:00:01.999008
MEAN_MOTION    = 15.86749375
ECCENTRICITY   = .0000893
INCLINATION    = 53.1532
RA_OF_ASC_NODE = 132.2428
ARG_OF_PERICENTER = 59.8042
MEAN_ANOMALY   = 359.6495

EPHEMERIS_TYPE = 0
CLASSIFICATION_TYPE = U
NORAD_CAT_ID   = 66243
ELEMENT_SET_NO = 999
REV_AT_EPOCH   = 265
BSTAR          = -.53509E-2
MEAN_MOTION_DOT = -.124046E-1
MEAN_MOTION_DDOT = 0

CCSDS_OMM_VERS = 2.0
CREATION_DATE  = 
ORIGINATOR     = 

OBJECT_NAME    = STARLINK-35517
OBJECT_ID      = 2025-245L
CENTER_NAME    = EARTH
REF_FRAME      = TEME
TIME_SYSTEM    = UTC
MEAN_ELEMENT_THEORY = SGP/SGP4

EPOCH          = 2025-11-08T06:00:04.000320
MEAN_MOTION    = 15.88290805
ECCENTRICITY   = .00005693
INCLINATION    = 53.1531
RA_OF_ASC_NODE = 135.1885
ARG_OF_PERICENTER = 65.1236
MEAN_ANOMALY   = 260.8832

EPHEMERIS_TYPE = 0
CLASSIFICATION_TYPE = U
NORAD_CAT_ID   = 66244
ELEMENT_SET_NO = 999
REV_AT_EPOCH   = 235
BSTAR          = -.46896077E-2
MEAN_MOTION_DOT = -.1159262E-1
MEAN_MOTION_DDOT = 0

CCSDS_OMM_VERS = 2.0
CREATION_DATE  = 
ORIGINATOR     = 

OBJECT_NAME    = STARLINK-35503
OBJECT_ID      = 2025-245M
CENTER_NAME    = EARTH
REF_FRAME      = TEME
TIME_SYSTEM    = UTC
MEAN_ELEMENT_THEORY = SGP/SGP4

EPOCH          = 2025-11-08T20:00:01.999008
MEAN_MOTION    = 15.86792964
ECCENTRICITY   = .0000868
INCLINATION    = 53.1529
RA_OF_ASC_NODE = 132.2267
ARG_OF_PERICENTER = 59.2592
MEAN_ANOMALY   = 7.4811

EPHEMERIS_TYPE = 0
CLASSIFICATION_TYPE = U
NORAD_CAT_ID   = 66245
ELEMENT_SET_NO = 999
REV_AT_EPOCH   = 260
BSTAR          = -.54588E-2
MEAN_MOTION_DOT = -.1265021E-1
MEAN_MOTION_DDOT = 0

CCSDS_OMM_VERS = 2.0
CREATION_DATE  = 
ORIGINATOR     = 

OBJECT_NAME    = STARLINK-35434
OBJECT_ID      = 2025-245N
CENTER_NAME    = EARTH
REF_FRAME      = TEME
TIME_SYSTEM    = UTC
MEAN_ELEMENT_THEORY = SGP/SGP4

EPOCH          = 2025-11-08T20:00:01.999008
MEAN_MOTION    = 15.86813590
ECCENTRICITY   = .0000834
INCLINATION    = 53.1527
RA_OF_ASC_NODE = 132.2218
ARG_OF_PERICENTER = 58.4902
MEAN_ANOMALY   = 10.5294

EPHEMERIS_TYPE = 0
CLASSIFICATION_TYPE = U
NORAD_CAT_ID   = 66246
ELEMENT_SET_NO = 999
REV_AT_EPOCH   = 244
BSTAR          = -.55032E-2
MEAN_MOTION_DOT = -.1275255E-1
MEAN_MOTION_DDOT = 0

CCSDS_OMM_VERS = 2.0
CREATION_DATE  = 
ORIGINATOR     = 

OBJECT_NAME    = STARLINK-35481
OBJECT_ID      = 2025-245P
CENTER_NAME    = EARTH
REF_FRAME      = TEME
TIME_SYSTEM    = UTC
MEAN_ELEMENT_THEORY = SGP/SGP4

EPOCH          = 2025-11-08T20:00:01.999008
MEAN_MOTION    = 15.86814537
ECCENTRICITY   = .0000886
INCLINATION    = 53.1527
RA_OF_ASC_NODE = 132.2160
ARG_OF_PERICENTER = 59.9401
MEAN_ANOMALY   = 11.9233

EPHEMERIS_TYPE = 0
CLASSIFICATION_TYPE = U
NORAD_CAT_ID   = 66247
ELEMENT_SET_NO = 999
REV_AT_EPOCH   = 265
BSTAR          = -.55308E-2
MEAN_MOTION_DOT = -.1280992E-1
MEAN_MOTION_DDOT = 0

