STARLINK-35454          
1 66236U 25245C   25312.83335647 -.01097415  00000+0 -47891-2 0  9992
2 66236  53.1532 132.2751 0000862  56.6487 347.1834 15.86620718  2496
STARLINK-35557          
1 66237U 25245D   25312.83335647 -.01136264  00000+0 -49727-2 0  9999
2 66237  53.1532 132.2695 0000894  50.9008 355.6245 15.86659025  2656
STARLINK-35556          
1 66238U 25245E   25312.83335647 -.01179349  00000+0 -50708-2 0  9992
2 66238  53.1532 132.2646 0000877  57.6531 351.1868 15.86689604  2657
STARLINK-35554          
1 66239U 25245F   25312.83335647 -.01214312  00000+0 -52330-2 0  9996
2 66239  53.1532 132.2587 0000865  59.1803 352.5160 15.86715393  2495
STARLINK-35546          
1 66240U 25245G   25312.83335647 -.01222004  00000+0 -52665-2 0  9996
2 66240  53.1530 132.2530 0000940  60.3434 353.8344 15.86729020  2659
STARLINK-35497          
1 66241U 25245H   25312.83335647 -.01232147  00000+0 -53121-2 0  9994
2 66241  53.1530 132.2480 0000973  64.3842 352.2674 15.86742304  2601
STARLINK-35480          
1 66242U 25245J   25312.83335647 -.01261526  00000+0 -54462-2 0  9997
2 66242  53.1532 132.2323 0001021  45.7821  18.7232 15.86774921  2654
STARLINK-35495          
1 66243U 25245K   25312.83335647 -.01240460  00000+0 -53509-2 0  9993
2 66243  53.1532 132.2428 0000893  59.8042 359.6495 15.86749375  2651
STARLINK-35517          
1 66244U 25245L   25312.25004630 -.01159262  00000+0 -46896-2 0  9995
2 66244  53.1531 135.1885 0000569  65.1236 260.8832 15.88290805  2351
STARLINK-35503          
1 66245U 25245M   25312.83335647 -.01265021  00000+0 -54588-2 0  9993
2 66245  53.1529 132.2267 0000868  59.2592   7.4811 15.86792964  2603
STARLINK-35434          
1 66246U 25245N   25312.83335647 -.01275255  00000+0 -55032-2 0  9999
2 66246  53.1527 132.2218 0000834  58.4902  10.5294 15.86813590  2448
STARLINK-35481          
1 66247U 25245P   25312.83335647 -.01280992  00000+0 -55308-2 0  9990
2 66247  53.1527 132.2160 0000886  59.9401  11.9233 15.86814537  2655
